
 PEER Ground Motion Database, Time Series Search Report -- NGA-West2 -- 2017-07-09


 -- Summary of PEER Ground Motion Database Search Criteria --
Magnitude Min:, 4.0
Magnitude Max:, 6.0
Rrup Min (km):, 10.0
Rrup Max (km):, 30.0
Rjb Min (km):, 10.0
Rjb Max (km):, 30.0
Vs30 Min (m/sec):, 360.0
Vs30 Max (m/sec):, 760.0
D9-95 Min (sec):, 15.0
D9-95 Max (sec):, 60.0
Scale Factor Min:, 0.1
Scale Factor Max:, 10.0
Period Array:, 0.01,1,10
Weight Array:, 1,1,1
Record Sequence Number:, 4346
Earthquake Name:, 
Station Name:, 
User-Defined Maximum Number of Records:, 30
Pulse:, 1
Damping Ratio:, 0.05
Scaling Method:, Minimize MSE
Suite Average:, Arithmetic
Single-Period-Scaling Period (sec):, 
Component:, SRSS
Fault Type:, All Types


 -- Summary of Metadata of Selected Records --
Result ID, Spectral Ordinate, Record Sequence Number, Mean Squared Error, Scale Factor, Tp-Pulse Period (sec), 5-75% Duration (sec), 5-95% Duration (sec), Arias Intensity (m/sec), Earthquake Name, Year, Station Name, Magnitude, Mechanism, Rjb (km), Rrup (km), Vs30 (m/sec), Lowest Useable Frequency (Hz), Initial-search Scale Factor, Horizontal-1 Acc. Filename, Horizontal-2 Acc. Filename, Vertical Acc. Filename
1, SRSS, 4346, 0.2759, 1.3071, -, 11.8, 21.3, 0.2, "Umbria Marche_ Italy", 1997, "Bevagna", 6.0, Normal, 18.86, 18.86, 401.34, 0.25, 1.3071, RSN4346_UBMARCHE.P_A-BEV000.AT2, RSN4346_UBMARCHE.P_A-BEV270.AT2 , RSN4346_UBMARCHE.P_A-BEV-DN.AT2  

 These records were obtained from the NGA-West2 On-Line Ground-Motion Database Tool
 These records are UNSCALED, AS RECORDED
 Filename Extension: 
   ,AT2 = Acceleration
   ,VT2 = Velocity
   ,DT2 = Displacement
 The users of the NGA-West2 databases, flatfiles, models and reports are requested to acknowledge the Pacific Earthquake Engineering Research Center (PEER) in their work and publications.

 -- Scaled Spectra used in Search & Scaling --
Period (sec),Target pSa (g),Arithmetic Mean pSa (g),Arithmetic Mean + Sigma pSa (g),Arithmetic Mean - Sigma pSa (g),RSN-4346 SRSS pSa (g)
0.01,0.15902141,0.14057801,0.14057801,0.14057801,0.14057801
0.02,0.19571865,0.14230767,0.14230767,0.14230767,0.14230767
0.022,0.20378672,0.14186095,0.14186095,0.14186095,0.14186095
0.025,0.21513252,0.14297568,0.14297568,0.14297568,0.14297568
0.029,0.22910027,0.14445485,0.14445485,0.14445485,0.14445485
0.03,0.2324159,0.14417718,0.14417718,0.14417718,0.14417718
0.032,0.24018692,0.14418929,0.14418929,0.14418929,0.14418929
0.035,0.25140973,0.14814305,0.14814305,0.14814305,0.14814305
0.036,0.25504499,0.14883369,0.14883369,0.14883369,0.14883369
0.04,0.26911315,0.14971466,0.14971466,0.14971466,0.14971466
0.042,0.27674115,0.14934158,0.14934158,0.14934158,0.14934158
0.044,0.2842155,0.15194569,0.15194569,0.15194569,0.15194569
0.045,0.28789818,0.15184937,0.15184937,0.15184937,0.15184937
0.046,0.29154607,0.15026459,0.15026459,0.15026459,0.15026459
0.048,0.29874172,0.14983003,0.14983003,0.14983003,0.14983003
0.05,0.3058104,0.15313545,0.15313545,0.15313545,0.15313545
0.055,0.3058104,0.16207247,0.16207247,0.16207247,0.16207247
0.06,0.3058104,0.17487234,0.17487234,0.17487234,0.17487234
0.065,0.3058104,0.16781169,0.16781169,0.16781169,0.16781169
0.067,0.3058104,0.17194412,0.17194412,0.17194412,0.17194412
0.07,0.3058104,0.17570257,0.17570257,0.17570257,0.17570257
0.075,0.3058104,0.19229836,0.19229836,0.19229836,0.19229836
0.08,0.3058104,0.2186917,0.2186917,0.2186917,0.2186917
0.085,0.3058104,0.21682786,0.21682786,0.21682786,0.21682786
0.09,0.3058104,0.20545018,0.20545018,0.20545018,0.20545018
0.095,0.3058104,0.21223177,0.21223177,0.21223177,0.21223177
0.1,0.3058104,0.22687489,0.22687489,0.22687489,0.22687489
0.11,0.3058104,0.27287947,0.27287947,0.27287947,0.27287947
0.12,0.3058104,0.24042701,0.24042701,0.24042701,0.24042701
0.13,0.3058104,0.3037245,0.3037245,0.3037245,0.3037245
0.133,0.3058104,0.3196406,0.3196406,0.3196406,0.3196406
0.14,0.3058104,0.33150838,0.33150838,0.33150838,0.33150838
0.15,0.3058104,0.25590126,0.25590126,0.25590126,0.25590126
0.16,0.3058104,0.23085027,0.23085027,0.23085027,0.23085027
0.17,0.3058104,0.24748582,0.24748582,0.24748582,0.24748582
0.18,0.3058104,0.2657454,0.2657454,0.2657454,0.2657454
0.19,0.3058104,0.26307444,0.26307444,0.26307444,0.26307444
0.2,0.3058104,0.26374277,0.26374277,0.26374277,0.26374277
0.22,0.3058104,0.27294022,0.27294022,0.27294022,0.27294022
0.24,0.3058104,0.3685279,0.3685279,0.3685279,0.3685279
0.25,0.3058104,0.34140111,0.34140111,0.34140111,0.34140111
0.26,0.3058104,0.28320955,0.28320955,0.28320955,0.28320955
0.28,0.3058104,0.23767741,0.23767741,0.23767741,0.23767741
0.29,0.3058104,0.2422466,0.2422466,0.2422466,0.2422466
0.3,0.3058104,0.25410476,0.25410476,0.25410476,0.25410476
0.32,0.28669725,0.25702695,0.25702695,0.25702695,0.25702695
0.34,0.2698327,0.23878998,0.23878998,0.23878998,0.23878998
0.35,0.2621232,0.2424335,0.2424335,0.2424335,0.2424335
0.36,0.254842,0.2510987,0.2510987,0.2510987,0.2510987
0.38,0.24142926,0.2609761,0.2609761,0.2609761,0.2609761
0.4,0.2293578,0.27649319,0.27649319,0.27649319,0.27649319
0.42,0.218436,0.30341412,0.30341412,0.30341412,0.30341412
0.44,0.20850709,0.35041439,0.35041439,0.35041439,0.35041439
0.45,0.2038736,0.39569997,0.39569997,0.39569997,0.39569997
0.46,0.19944156,0.44120261,0.44120261,0.44120261,0.44120261
0.48,0.1911315,0.54320369,0.54320369,0.54320369,0.54320369
0.5,0.18348624,0.63003662,0.63003662,0.63003662,0.63003662
0.55,0.16680567,0.56420068,0.56420068,0.56420068,0.56420068
0.6,0.1529052,0.42970375,0.42970375,0.42970375,0.42970375
0.65,0.14114326,0.44338053,0.44338053,0.44338053,0.44338053
0.667,0.13754591,0.44378005,0.44378005,0.44378005,0.44378005
0.7,0.1310616,0.46656313,0.46656313,0.46656313,0.46656313
0.75,0.12232416,0.44457495,0.44457495,0.44457495,0.44457495
0.8,0.1146789,0.35227545,0.35227545,0.35227545,0.35227545
0.85,0.10793308,0.30104587,0.30104587,0.30104587,0.30104587
0.9,0.1019368,0.25107042,0.25107042,0.25107042,0.25107042
0.95,0.0965717,0.22524778,0.22524778,0.22524778,0.22524778
1.0,0.09174312,0.18550805,0.18550805,0.18550805,0.18550805
1.1,0.08340284,0.13868651,0.13868651,0.13868651,0.13868651
1.2,0.0764526,0.11479289,0.11479289,0.11479289,0.11479289
1.3,0.07057163,0.11904371,0.11904371,0.11904371,0.11904371
1.4,0.0655308,0.10096474,0.10096474,0.10096474,0.10096474
1.5,0.06116208,0.06888666,0.06888666,0.06888666,0.06888666
1.6,0.05733945,0.05331843,0.05331843,0.05331843,0.05331843
1.7,0.05396654,0.05254869,0.05254869,0.05254869,0.05254869
1.8,0.0509684,0.04824123,0.04824123,0.04824123,0.04824123
1.9,0.04828585,0.04136855,0.04136855,0.04136855,0.04136855
2.0,0.04587156,0.04154045,0.04154045,0.04154045,0.04154045
2.2,0.04170142,0.04181896,0.04181896,0.04181896,0.04181896
2.4,0.0382263,0.03793496,0.03793496,0.03793496,0.03793496
2.5,0.03669725,0.03942158,0.03942158,0.03942158,0.03942158
2.6,0.03528582,0.03744529,0.03744529,0.03744529,0.03744529
2.8,0.0327654,0.03698175,0.03698175,0.03698175,0.03698175
3.0,0.03058104,0.03658508,0.03658508,0.03658508,0.03658508
3.2,0.02866973,0.03162041,0.03162041,0.03162041,0.03162041
3.4,0.02698327,0.02968516,0.02968516,0.02968516,0.02968516
3.5,0.02621232,0.02751889,0.02751889,0.02751889,0.02751889
3.6,0.02329336,0.0250637,0.0250637,0.0250637,0.0250637
3.8,0.01857058,0.02215822,0.02215822,0.02215822,0.02215822
4.0,0.01497847,0.02045743,0.02045743,0.02045743,0.02045743
4.2,0.01340981,0.01680877,0.01680877,0.01680877,0.01680877
4.4,0.01206738,0.01600181,0.01600181,0.01600181,0.01600181
4.6,0.01091797,0.01464527,0.01464527,0.01464527,0.01464527
4.8,0.00992697,0.01264049,0.01264049,0.01264049,0.01264049
5.0,0.00906105,0.01039265,0.01039265,0.01039265,0.01039265
5.5,0.00811593,0.00748742,0.00748742,0.00748742,0.00748742
6.0,0.00733945,0.00562883,0.00562883,0.00562883,0.00562883
6.5,0.00607343,0.00436634,0.00436634,0.00436634,0.00436634
7.0,0.00509684,0.00335004,0.00335004,0.00335004,0.00335004
7.5,0.00434631,0.00259573,0.00259573,0.00259573,0.00259573
8.0,0.00374462,0.00205904,0.00205904,0.00205904,0.00205904
8.5,0.00326369,0.00168238,0.00168238,0.00168238,0.00168238
9.0,0.00286697,0.00141592,0.00141592,0.00141592,0.00141592
9.5,0.00254053,0.00127123,0.00127123,0.00127123,0.00127123
10.0,0.00226526,0.00113406,0.00113406,0.00113406,0.00113406
11.0,0.0,0.00089881,0.00089881,0.00089881,0.00089881
12.0,0.0,0.00074465,0.00074465,0.00074465,0.00074465
13.0,0.0,0.00064429,0.00064429,0.00064429,0.00064429
14.0,0.0,0.00056398,0.00056398,0.00056398,0.00056398
15.0,0.0,0.00049736,0.00049736,0.00049736,0.00049736
20.0,0.0,0.00028772,0.00028772,0.00028772,0.00028772

 -- Unscaled Horizontal & Vertical Spectra, as recorded --
Period (sec),RSN-4346 Horizontal-1 pSa (g),RSN-4346 Horizontal-2 pSa (g),RSN-4346 Vertical pSa (g)
0.01,0.0734501,0.07855941,0.0368
0.02,0.07491373,0.07899878,0.0372
0.022,0.07452306,0.07889797,0.0374
0.025,0.07535457,0.07928494,0.0376
0.029,0.07645576,0.0797983,0.038
0.03,0.07599699,0.0799425,0.038
0.032,0.07588194,0.08006448,0.0383
0.035,0.08153053,0.0787251,0.0376
0.036,0.08176324,0.07924446,0.038
0.04,0.07778408,0.08407429,0.0401
0.042,0.07674822,0.08463604,0.0403
0.044,0.08127531,0.08310883,0.0422
0.045,0.08213452,0.08215563,0.0441
0.046,0.08165167,0.08092223,0.0467
0.048,0.08100826,0.08109709,0.0509
0.05,0.0848554,0.08077597,0.0542
0.055,0.09190554,0.08323056,0.0565
0.06,0.09863043,0.09038936,0.0775
0.065,0.09437645,0.08703531,0.1
0.067,0.09733135,0.08848965,0.111
0.07,0.09232894,0.09769297,0.128
0.075,0.09173796,0.1150095,0.128
0.08,0.1071886,0.1284619,0.112
0.085,0.1083052,0.1256453,0.102
0.09,0.1013325,0.1201518,0.0852
0.095,0.1125198,0.117055,0.0919
0.1,0.1240349,0.1214135,0.1
0.11,0.14587,0.1493456,0.129
0.12,0.1316896,0.1284146,0.0933
0.13,0.1851515,0.1403944,0.109
0.133,0.2004951,0.1400011,0.118
0.14,0.2000081,0.1559431,0.131
0.15,0.1342382,0.1425052,0.146
0.16,0.1250288,0.1247345,0.12
0.17,0.1418069,0.1254553,0.118
0.18,0.1512831,0.1358182,0.118
0.19,0.1403654,0.144236,0.101
0.2,0.1428458,0.1425048,0.0948
0.22,0.1424946,0.1526331,0.0925
0.24,0.217556,0.179328,0.13
0.25,0.2002736,0.1676549,0.12
0.26,0.1660456,0.1391875,0.11
0.28,0.143961,0.1110778,0.13
0.29,0.1390753,0.1224931,0.112
0.3,0.1488274,0.1250671,0.0978
0.32,0.1624739,0.1107601,0.11
0.34,0.1450881,0.1110079,0.107
0.35,0.1454051,0.1151385,0.108
0.36,0.146501,0.1242577,0.115
0.38,0.1440391,0.1382592,0.125
0.4,0.1526097,0.1464732,0.103
0.42,0.1603238,0.167862,0.0989
0.44,0.1759176,0.2022875,0.0929
0.45,0.1906731,0.2351313,0.0918
0.46,0.2017333,0.2706197,0.0932
0.48,0.2389939,0.3399735,0.0938
0.5,0.3112268,0.3680548,0.115
0.55,0.3131027,0.2971126,0.104
0.6,0.2538844,0.2088367,0.0827
0.65,0.2684761,0.207315,0.0743
0.667,0.2693882,0.206631,0.0737
0.7,0.3094302,0.177928,0.0819
0.75,0.2914788,0.1752706,0.0832
0.8,0.2026019,0.177722,0.0754
0.85,0.1798007,0.1439279,0.0523
0.9,0.1389413,0.1326255,0.0518
0.95,0.1193135,0.1243367,0.054
1.0,0.08797649,0.1113628,0.0498
1.1,0.07464026,0.07540666,0.0404
1.2,0.05979338,0.06432173,0.0246
1.3,0.0624521,0.06628755,0.0187
1.4,0.05087899,0.05811754,0.0226
1.5,0.0382248,0.03628027,0.0248
1.6,0.02998586,0.02765371,0.0206
1.7,0.03387689,0.0216458,0.0185
1.8,0.0309041,0.02017475,0.0205
1.9,0.02605717,0.01796259,0.0203
2.0,0.027259,0.01633766,0.0189
2.2,0.0289042,0.01371523,0.0149
2.4,0.02739163,0.00958953,0.0155
2.5,0.02884682,0.00879938,0.0144
2.6,0.02754668,0.00786365,0.0129
2.8,0.02768148,0.00584808,0.011
3.0,0.02760696,0.00460876,0.0097
3.2,0.02383362,0.0041419,0.00937
3.4,0.02238285,0.00384264,0.00842
3.5,0.02071713,0.00374572,0.00766
3.6,0.01882625,0.00363891,0.00679
3.8,0.01663877,0.0032432,0.00596
4.0,0.0154273,0.00263509,0.00562
4.2,0.01267675,0.00215946,0.00512
4.4,0.01208535,0.00195222,0.00454
4.6,0.01106344,0.00177042,0.00394
4.8,0.00953534,0.00161096,0.00334
5.0,0.00781353,0.00147096,0.00285
5.5,0.00560242,0.00119365,0.00296
6.0,0.0041929,0.00098161,0.00218
6.5,0.00323674,0.00082579,0.00154
7.0,0.00246398,0.0007052,0.00117
7.5,0.00189052,0.00060784,0.00112
8.0,0.00148297,0.00053123,0.000931
8.5,0.00119804,0.00047041,0.000721
9.0,0.00099844,0.00042013,0.00058
9.5,0.00089652,0.00037694,0.000501
10.0,0.00079858,0.00033914,0.000435
11.0,0.00062932,0.0002771,0.000336
12.0,0.00051998,0.00023275,0.000267
13.0,0.00045123,0.00019836,0.000219
14.0,0.00039608,0.00017114,0.000183
15.0,0.00035003,0.00014919,0.000155
20.0,0.0002029,8.535e-05,8.33e-05
